NORAD_CAT_ID,OBJECT_NAME,OBJECT_TYPE,EPOCH,MEAN_MOTION,ECCENTRICITY,INCLINATION,RA_OF_ASC_NODE,ARG_OF_PERICENTER,MEAN_ANOMALY,BSTAR,MEAN_MOTION_DOT,MEAN_MOTION_DDOT,TLE_LINE0,TLE_LINE1,TLE_LINE2,SEMIMAJOR_AXIS,PERIOD,APOGEE,PERIGEE,DECAYED
52346.0,STARLINK-3812,PAYLOAD,2022-10-22 12:32:06,15.08844572,0.0002466,53.2179,339.5136,29.0718,331.0411,8.253299999999999e-05,1.026e-05,0.0,0 STARLINK-3812,1 52346U 22045R   22295.52230174  .00001026  00000-0  82533-4 0  9991,2 52346  53.2179 339.5136 0002466  29.0718 331.0411 15.08844572 29462,6917.866,95.437,541.437,538.025,0.0
52346.0,STARLINK-3812,PAYLOAD,2022-10-22 20:29:01,15.08854313,0.0002483,53.2179,338.0269,29.3976,330.7156,0.00015569,2.191e-05,0.0,0 STARLINK-3812,1 52346U 22045R   22295.85349261  .00002191  00000-0  15569-3 0  9993,2 52346  53.2179 338.0269 0002483  29.3976 330.7156 15.08854313 29513,6917.837,95.437,541.419,537.984,0.0
52346.0,STARLINK-3812,PAYLOAD,2022-10-23 06:01:20,15.08845284,0.0002505999999999,53.2179,336.24300000000005,30.7908,329.3231,0.00015509,2.181e-05,0.0,0 STARLINK-3812,1 52346U 22045R   22296.25093689  .00002181  00000-0  15509-3 0  9991,2 52346  53.2179 336.2430 0002506  30.7908 329.3231 15.08845284 29571,6917.864000000001,95.437,541.4630000000002,537.996,0.0
52346.0,STARLINK-3812,PAYLOAD,2022-10-23 09:12:07,15.08848346,0.0002491,53.2174,335.6491,31.2296,328.8844,0.00018591,2.672e-05,0.0,0 STARLINK-3812,1 52346U 22045R   22296.38341643  .00002672  00000-0  18591-3 0  9990,2 52346  53.2174 335.6491 0002491  31.2296 328.8844 15.08848346 29593,6917.855,95.437,541.443,537.997,0.0
52346.0,STARLINK-3812,PAYLOAD,2022-10-23 12:22:53,15.08851742,0.0002539,53.2171,335.0538,30.7774,329.3367,0.00019036,2.744e-05,0.0,0 STARLINK-3812,1 52346U 22045R   22296.51589398  .00002744  00000-0  19036-3 0  9991,2 52346  53.2171 335.0538 0002539  30.7774 329.3367 15.08851742 29617,6917.844,95.437,541.466,537.953,0.0
52346.0,STARLINK-3812,PAYLOAD,2022-10-24 09:02:53,15.08841997,0.0002648,53.2167,331.1884,28.192,331.9215,-1.323e-05,-4.99e-06,0.0,0 STARLINK-3812,1 52346U 22045R   22297.37701323 -.00000499  00000-0 -13230-4 0  9998,2 52346  53.2167 331.1884 0002648  28.1920 331.9215 15.08841997 29744,6917.874,95.437,541.571,537.9069999999998,0.0
52346.0,STARLINK-3812,PAYLOAD,2022-10-25 10:29:05,15.08831345,0.0002735,53.2176,326.4307,24.2381,335.8739,-8.6841e-05,-1.67e-05,0.0,0 STARLINK-3812,1 52346U 22045R   22298.43687292 -.00001670  00000-0 -86841-4 0  9994,2 52346  53.2176 326.4307 0002735  24.2381 335.8739 15.08831345 29904,6917.906999999997,95.438,541.664,537.88,0.0
52346.0,STARLINK-3812,PAYLOAD,2022-10-25 18:26:01,15.08834531,0.000274,53.2177,324.9439,25.276,334.8366,-6.6799e-05,-1.351e-05,0.0,0 STARLINK-3812,1 52346U 22045R   22298.76807217 -.00001351  00000-0 -66799-4 0  9997,2 52346  53.2177 324.9439 0002740  25.2760 334.8366 15.08834531 29952,6917.897,95.438,541.658,537.867,0.0
52346.0,STARLINK-3812,PAYLOAD,2022-10-26 03:58:19,15.08837158,0.0002663999999999,53.2177,323.1594,25.638,334.4743,5.4568e-05,5.8e-06,0.0,0 STARLINK-3812,1 52346U 22045R   22299.16550915  .00000580  00000-0  54568-4 0  9994,2 52346  53.2177 323.1594 0002664  25.6380 334.4743 15.08837158 30014,6917.889,95.438,541.597,537.911,0.0
52346.0,STARLINK-3812,PAYLOAD,2022-10-26 11:55:15,15.08838799,0.0002829,53.2168,321.6727,26.1143,333.9992,0.00027791,4.137e-05,0.0,0 STARLINK-3812,1 52346U 22045R   22299.49671287  .00004137  00000-0  27791-3 0  9995,2 52346  53.2168 321.6727 0002829  26.1143 333.9992 15.08838799 30068,6917.884,95.438,541.706,537.7919999999998,0.0
52346.0,STARLINK-3812,PAYLOAD,2022-10-26 18:16:48,15.08843394,0.000283,53.2168,320.4832,26.0667,334.0468,0.00028303,4.219e-05,0.0,0 STARLINK-3812,1 52346U 22045R   22299.76167197  .00004219  00000-0  28303-3 0  9996,2 52346  53.2168 320.4832 0002830  26.0667 334.0468 15.08843394 30106,6917.87,95.437,541.693,537.7769999999998,0.0
52346.0,STARLINK-3812,PAYLOAD,2022-10-27 08:35:16,15.08848405,0.0002697,53.2162,317.8066,26.2306,333.8822,0.00019557,2.826e-05,0.0,0 STARLINK-3812,1 52346U 22045R   22300.35782960  .00002826  00000-0  19557-3 0  9998,2 52346  53.2162 317.8066 0002697  26.2306 333.8822 15.08848405 30190,6917.855,95.437,541.585,537.854,0.0
52346.0,STARLINK-3812,PAYLOAD,2022-10-27 18:07:34,15.08855903,0.0002723999999999,53.2161,316.0223,27.1229,332.9905,0.00027748,4.132e-05,0.0,0 STARLINK-3812,1 52346U 22045R   22300.75526476  .00004132  00000-0  27748-3 0  9993,2 52346  53.2161 316.0223 0002724  27.1229 332.9905 15.08855903 30250,6917.831999999999,95.437,541.581,537.812,0.0
52346.0,STARLINK-3812,PAYLOAD,2022-10-28 08:26:02,15.08852252,0.0002938,53.2163,313.346,26.1539,333.9601,0.00016456,2.332e-05,0.0,0 STARLINK-3812,1 52346U 22045R   22301.35142139  .00002332  00000-0  16456-3 0  9994,2 52346  53.2163 313.3460 0002938  26.1539 333.9601 15.08852252 30343,6917.843000000003,95.437,541.74,537.675,0.0
52346.0,STARLINK-3812,PAYLOAD,2022-10-28 19:33:44,15.08849575,0.0002802,53.2158,311.2647,28.2808,331.8336,0.00012735,1.739e-05,0.0,0 STARLINK-3812,1 52346U 22045R   22301.81509934  .00001739  00000-0  12735-3 0  9991,2 52346  53.2158 311.2647 0002802  28.2808 331.8336 15.08849575 30417,6917.851,95.437,541.655,537.778,0.0
52346.0,STARLINK-3812,PAYLOAD,2022-10-29 08:16:49,15.0884695,0.0002858,53.216,308.8859,26.2736,333.8401,6.1622e-05,6.92e-06,0.0,0 STARLINK-3812,1 52346U 22045R   22302.34501881  .00000692  00000-0  61622-4 0  9990,2 52346  53.2160 308.8859 0002858  26.2736 333.8401 15.08846950 30493,6917.859,95.437,541.701,537.747,0.0
52346.0,STARLINK-3812,PAYLOAD,2022-10-29 19:24:31,15.08844162,0.0002816,53.2158,306.8039,28.7846,331.3301,0.00011685,1.572e-05,0.0,0 STARLINK-3812,1 52346U 22045R   22302.80870019  .00001572  00000-0  11685-3 0  9994,2 52346  53.2158 306.8039 0002816  28.7846 331.3301 15.08844162 30564,6917.868,95.437,541.681,537.785,0.0
52346.0,STARLINK-3812,PAYLOAD,2022-10-29 20:59:54,15.08840263,0.0002592,53.2155,306.5038,30.0022,330.1118,2.9809e-05,1.86e-06,0.0,0 STARLINK-3812,1 52346U 22045R   22302.87494060  .00000186  00000-0  29809-4 0  9997,2 52346  53.2155 306.5038 0002592  30.0022 330.1118 15.08840263 30572,6917.88,95.438,541.538,537.951,0.0
52346.0,STARLINK-3812,PAYLOAD,2022-10-30 06:32:13,15.08841632,0.0002813,53.2162,304.7219,28.6689,331.4457,6.7463e-05,7.85e-06,0.0,0 STARLINK-3812,1 52346U 22045R   22303.27238176  .00000785  00000-0  67463-4 0  9999,2 52346  53.2162 304.7219 0002813  28.6689 331.4457 15.08841632 30637,6917.875,95.437,541.686,537.794,0.0
52346.0,STARLINK-3812,PAYLOAD,2022-10-30 20:50:42,15.08841667,0.0002791,53.2162,302.0456,30.4464,329.6690000000001,0.00017598,2.514e-05,0.0,0 STARLINK-3812,1 52346U 22045R   22303.86854386  .00002514  00000-0  17598-3 0  9996,2 52346  53.2162 302.0456 0002791  30.4464 329.6690 15.08841667 30724,6917.875,95.437,541.6709999999998,537.81,0.0
52346.0,STARLINK-3812,PAYLOAD,2022-10-31 09:33:47,15.08844009,0.0002765,53.217,299.6672,29.263,330.8517,0.00021214,3.09e-05,0.0,0 STARLINK-3812,1 52346U 22045R   22304.39846359  .00003090  00000-0  21214-3 0  9996,2 52346  53.2170 299.6672 0002765  29.2630 330.8517 15.08844009 30800,6917.868,95.437,541.646,537.82,0.0
52346.0,STARLINK-3812,PAYLOAD,2022-10-31 19:06:06,15.08842833,0.0002788999999999,53.2169,297.8832,30.6024,329.5131,0.00019497,2.816e-05,0.0,0 STARLINK-3812,1 52346U 22045R   22304.79590433  .00002816  00000-0  19497-3 0  9994,2 52346  53.2169 297.8832 0002789  30.6024 329.5131 15.08842833 30861,6917.871999999999,95.437,541.6659999999998,537.807,0.0
52346.0,STARLINK-3812,PAYLOAD,2022-11-01 09:24:34,15.08841916,0.0002959,53.2166,295.2074,27.6205,332.4944,0.00015589,2.194e-05,0.0,0 STARLINK-3812,1 52346U 22045R   22305.39206588  .00002194  00000-0  15589-3 0  9993,2 52346  53.2166 295.2074 0002959  27.6205 332.4944 15.08841916 30950,6917.875,95.437,541.7869999999998,537.693,0.0
52346.0,STARLINK-3812,PAYLOAD,2022-11-01 18:56:53,15.08838189,0.0002903,53.2166,293.4229,28.2213,331.8936,6.9331e-05,8.15e-06,0.0,0 STARLINK-3812,1 52346U 22045R   22305.78950746  .00000815  00000-0  69331-4 0  9991,2 52346  53.2166 293.4229 0002903  28.2213 331.8936 15.08838189 31017,6917.886,95.438,541.759,537.743,0.0
52346.0,STARLINK-3812,PAYLOAD,2022-11-02 02:53:48,15.08848723,0.0002681,53.2162,291.9346,31.8961,328.2194,0.00023662,3.48e-05,0.0,0 STARLINK-3812,1 52346U 22045R   22306.12070216  .00003480  00000-0  23662-3 0  9992,2 52346  53.2162 291.9346 0002681  31.8961 328.2194 15.08848723 31065,6917.854,95.437,541.573,537.864,0.0
52346.0,STARLINK-3812,PAYLOAD,2022-11-02 09:15:21,15.08845465,0.000279,53.2165,290.7465,31.66800000000001,328.4480000000001,0.00016661,2.365e-05,0.0,0 STARLINK-3812,1 52346U 22045R   22306.38566395  .00002365  00000-0  16661-3 0  9990,2 52346  53.2165 290.7465 0002790  31.6680 328.4480 15.08845465 31109,6917.864000000001,95.437,541.659,537.799,0.0
52346.0,STARLINK-3812,PAYLOAD,2022-11-02 18:47:40,15.08832319,0.0002796,53.2163,288.9616,27.3599,332.7539,-4.144100000000001e-05,-9.48e-06,0.0,0 STARLINK-3812,1 52346U 22045R   22306.78311098 -.00000948  00000-0 -41441-4 0  9994,2 52346  53.2163 288.9616 0002796  27.3599 332.7539 15.08832319 31164,6917.904,95.438,541.703,537.835,0.0
52346.0,STARLINK-3812,PAYLOAD,2022-11-03 04:19:59,15.08843238,0.0002812,53.216,287.1777,27.044,333.0698,0.00016854,2.395e-05,0.0,0 STARLINK-3812,1 52346U 22045R   22307.18054780  .00002395  00000-0  16854-3 0  9996,2 52346  53.2160 287.1777 0002812  27.0440 333.0698 15.08843238 31220,6917.87,95.437,541.681,537.79,0.0
52346.0,STARLINK-3812,PAYLOAD,2022-11-03 10:41:32,15.08838932,0.0002866,53.2164,285.9887,28.5117,331.6032,0.00015144,2.122e-05,0.0,0 STARLINK-3812,1 52346U 22045R   22307.44551045  .00002122  00000-0  15144-3 0  9990,2 52346  53.2164 285.9887 0002866  28.5117 331.6032 15.08838932 31263,6917.884,95.438,541.731,537.766,0.0
